OBJECT_NAME,OBJECT_ID,EPOCH,MEAN_MOTION,ECCENTRICITY,INCLINATION,RA_OF_ASC_NODE,ARG_OF_PERICENTER,MEAN_ANOMALY,EPHEMERIS_TYPE,CLASSIFICATION_TYPE,NORAD_CAT_ID,ELEMENT_SET_NO,REV_AT_EPOCH,BSTAR,MEAN_MOTION_DOT,MEAN_MOTION_DDOT
IONOSFERA-M 2,2024-199B,2026-07-02T20:10:09.764256,14.22760663,.00004043,98.7151,56.7564,53.0468,307.0747,0,U,61736,999,13305,.59080316E-4,.88E-6,0
PRSC-EO1,2025-012A,2026-07-03T16:11:49.338240,15.17658535,.00058434,97.4218,256.8123,185.5921,174.5249,0,U,62725,999,8069,.41711672E-3,.8338E-4,0
BIOMASS,2025-090A,2026-07-02T20:30:17.957664,14.67360834,.00014712,98.0748,10.9387,85.9487,274.1886,0,U,63772,999,6298,.23137657E-3,.1259E-4,0
GOSAT-GW (IBUKI GW),2025-141A,2026-07-03T16:33:41.446656,14.67554988,.00014641,98.0568,121.7387,84.7452,275.3920,0,U,64694,999,5426,.14842736E-4,.36E-6,0
IONOSFERA-M 3,2025-155A,2026-07-03T15:30:47.467872,14.21489299,.0001861,98.6034,146.1377,129.5228,230.6114,0,U,64876,999,4874,.52275846E-4,.71E-6,0
IONOSFERA-M 4,2025-155B,2026-07-03T14:39:33.807744,14.21491604,.00015761,98.6038,146.0202,110.5063,249.6284,0,U,64877,999,4873,.46500624E-4,.59E-6,0
MICROCARB,2025-156A,2026-07-02T04:00:47.034720,14.72881876,.0017037,98.0094,260.0568,208.4094,151.6186,0,U,64899,999,5017,.10881987E-3,.648E-5,0
CO3D 3,2025-156B,2026-07-02T18:54:11.768544,15.20194677,.00018297,97.4333,262.2564,108.4271,251.7164,0,U,64900,999,5190,.25114954E-3,.5372E-4,0
CO3D 4,2025-156C,2026-07-02T18:54:24.514272,15.20195699,.00007418,97.4337,262.2559,172.7753,187.3493,0,U,64901,999,5190,.13156404E-3,.2781E-4,0
CO3D 2,2025-156D,2026-07-02T19:41:10.709376,15.20196457,.00014608,97.4332,262.1873,91.2253,268.9149,0,U,64902,999,5190,.25873747E-3,.5537E-4,0
CO3D 1,2025-156E,2026-07-02T19:41:24.317376,15.20200114,.0001337,97.4331,262.1876,102.1222,258.0163,0,U,64903,999,5190,.25598561E-3,.5478E-4,0
PRSC-S1,2025-164A,2026-07-03T12:08:47.654304,15.06572610,.00050571,41.1286,195.8953,111.4526,248.6828,0,U,65055,999,5089,.3156141E-3,.458E-4,0
SENTINEL-6B,2025-264A,2026-07-02T20:34:19.557120,12.80929974,.00079161,66.0412,102.6328,268.8820,91.1289,0,U,66514,999,2917,.64349154E-4,-.46E-6,0
CAS500-3,2025-274F,2026-07-02T17:53:28.705632,14.88359938,.0006878,97.7442,111.4426,70.4146,289.7813,0,U,66655,999,3246,.17261063E-3,.1545E-4,0
CSG-3,2026-001A,2026-07-03T11:15:25.709184,14.82151479,.00016429,97.8892,7.8356,98.6858,261.4541,0,U,67304,999,2687,.47919606E-3,.3764E-4,0
PRSC-E03,2026-092A,2026-07-03T14:58:42.176928,15.06760384,.00035427,38.0020,352.7504,172.1651,187.9167,0,U,68835,999,1043,.24017176E-3,.3534E-4,0
CAS500-2,2026-100AK,2026-07-02T16:21:22.951296,15.20774819,.00089425,97.3885,81.2487,342.7001,17.3929,0,U,69013,999,916,.33251661E-3,.7266E-4,0
