IONOSFERA-M 2           
1 61736U 24199B   26183.84039079  .00000088  00000+0  59080-4 0  9999
2 61736  98.7151  56.7564 0000404  53.0468 307.0747 14.22760663133050
PRSC-EO1                
1 62725U 25012A   26184.67487660  .00008338  00000+0  41712-3 0  9996
2 62725  97.4218 256.8123 0005843 185.5921 174.5249 15.17658535 80694
BIOMASS                 
1 63772U 25090A   26183.85437451  .00001259  00000+0  23138-3 0  9994
2 63772  98.0748  10.9387 0001471  85.9487 274.1886 14.67360834 62988
GOSAT-GW (IBUKI GW)     
1 64694U 25141A   26184.69006304  .00000036  00000+0  14843-4 0  9993
2 64694  98.0568 121.7387 0001464  84.7452 275.3920 14.67554988 54263
IONOSFERA-M 3           
1 64876U 25155A   26184.64638273  .00000071  00000+0  52276-4 0  9992
2 64876  98.6034 146.1377 0001861 129.5228 230.6114 14.21489299 48746
IONOSFERA-M 4           
1 64877U 25155B   26184.61080796  .00000059  00000+0  46501-4 0  9991
2 64877  98.6038 146.0202 0001576 110.5063 249.6284 14.21491604 48737
MICROCARB               
1 64899U 25156A   26183.16721105  .00000648  00000+0  10882-3 0  9997
2 64899  98.0094 260.0568 0017037 208.4094 151.6186 14.72881876 50173
CO3D 3                  
1 64900U 25156B   26183.78763621  .00005372  00000+0  25115-3 0  9991
2 64900  97.4333 262.2564 0001829 108.4271 251.7164 15.20194677 51903
CO3D 4                  
1 64901U 25156C   26183.78778373  .00002781  00000+0  13156-3 0  9995
2 64901  97.4337 262.2559 0000741 172.7753 187.3493 15.20195699 51907
CO3D 2                  
1 64902U 25156D   26183.82026284  .00005537  00000+0  25874-3 0  9990
2 64902  97.4332 262.1873 0001460  91.2253 268.9149 15.20196457 51907
CO3D 1                  
1 64903U 25156E   26183.82042034  .00005478  00000+0  25599-3 0  9990
2 64903  97.4331 262.1876 0001337 102.1222 258.0163 15.20200114 51903
PRSC-S1                 
1 65055U 25164A   26184.50610711  .00004580  00000+0  31561-3 0  9996
2 65055  41.1286 195.8953 0005057 111.4526 248.6828 15.06572610 50895
SENTINEL-6B             
1 66514U 25264A   26183.85717080 -.00000046  00000+0  64349-4 0  9997
2 66514  66.0412 102.6328 0007916 268.8820  91.1289 12.80929974 29172
CAS500-3                
1 66655U 25274F   26183.74547113  .00001545  00000+0  17261-3 0  9994
2 66655  97.7442 111.4426 0006878  70.4146 289.7813 14.88359938 32464
CSG-3                   
1 67304U 26001A   26184.46904756  .00003764  00000+0  47920-3 0  9995
2 67304  97.8892   7.8356 0001642  98.6858 261.4541 14.82151479 26879
PRSC-E03                
1 68835U 26092A   26184.62409927  .00003534  00000+0  24017-3 0  9990
2 68835  38.0020 352.7504 0003542 172.1651 187.9167 15.06760384 10435
CAS500-2                
1 69013U 26100AK  26183.68151564  .00007266  00000+0  33252-3 0  9992
2 69013  97.3885  81.2487 0008942 342.7001  17.3929 15.20774819  9162
